NORAD_CAT_ID,OBJECT_NAME,OBJECT_TYPE,EPOCH,MEAN_MOTION,ECCENTRICITY,INCLINATION,RA_OF_ASC_NODE,ARG_OF_PERICENTER,MEAN_ANOMALY,BSTAR,MEAN_MOTION_DOT,MEAN_MOTION_DDOT,TLE_LINE0,TLE_LINE1,TLE_LINE2,SEMIMAJOR_AXIS,PERIOD,APOGEE,PERIGEE,DECAYED
51883.0,STARLINK-3576,PAYLOAD,2022-04-17 22:00:00,15.73288038,0.0001190999999999,53.2124,279.906,64.5141,84.4993,-0.00021649,-0.00031006,0.0,0 STARLINK-3576,1 51883U 22022AH  22107.91667824 -.00031006  00000-0 -21649-3 0  9995,2 51883  53.2124 279.9060 0001191  64.5141  84.4993 15.73288038  3690,6727.644,91.528,350.31,348.708,0.0
51883.0,STARLINK-3576,PAYLOAD,2022-04-18 08:00:01,15.73203052,0.0001025,53.2125,277.8412,72.2025,278.0852,7.3791e-05,9.75e-05,0.0,0 STARLINK-3576,1 51883U 22022AH  22108.33334491  .00009750  00000-0  73791-4 0  9998,2 51883  53.2125 277.8412 0001025  72.2025 278.0852 15.73203052  8415,6727.886,91.533,350.441,349.06199999999984,0.0
51883.0,STARLINK-3576,PAYLOAD,2022-04-18 14:00:01,15.73217297,0.0001068,53.2127,276.6048,66.7711,260.2074,5.023600000000001e-05,6.441e-05,0.0,0 STARLINK-3576,1 51883U 22022AH  22108.58334491  .00006441  00000-0  50236-4 0  9998,2 51883  53.2127 276.6048 0001068  66.7711 260.2074 15.73217297  3708,6727.846,91.532,350.42900000000014,348.992,0.0
51883.0,STARLINK-3576,PAYLOAD,2022-04-18 22:00:00,15.7319697,0.0001248,53.2123,274.9566,56.9908,358.9558,0.00028457,0.000395,0.0,0 STARLINK-3576,1 51883U 22022AH  22108.91667824  .00039500  00000-0  28457-3 0  9995,2 51883  53.2123 274.9566 0001248  56.9908 358.9558 15.73196970  3705,6727.904,91.533,350.608,348.92900000000014,0.0
51883.0,STARLINK-3576,PAYLOAD,2022-04-19 14:00:01,15.73250928,0.0001055,53.2125,271.6558,62.606,171.2244,-0.00031297,-0.00044406,0.0,0 STARLINK-3576,1 51883U 22022AH  22109.58334491 -.00044406  00000-0 -31297-3 0  9999,2 51883  53.2125 271.6558 0001055  62.6060 171.2244 15.73250928  8618,6727.75,91.53,350.325,348.905,0.0
51883.0,STARLINK-3576,PAYLOAD,2022-04-20 14:00:01,15.73231867,0.0001447,53.2129,266.7071,61.2028,79.4035,-0.00058871,-0.00082549,0.0,0 STARLINK-3576,1 51883U 22022AH  22110.58334491 -.00082549  00000-0 -58871-3 0  9998,2 51883  53.2129 266.7071 0001447  61.2028  79.4035 15.73231867  3692,6727.804,91.531,350.64300000000014,348.696,0.0
51883.0,STARLINK-3576,PAYLOAD,2022-04-20 22:00:00,15.73173879,0.0001440999999999,53.2121,265.0587,48.6464,180.9251,0.0006604,0.00092991,0.0,0 STARLINK-3576,1 51883U 22022AH  22110.91667824  .00092991  00000-0  66040-3 0  9991,2 51883  53.2121 265.0587 0001441  48.6464 180.9251 15.73173879  8821,6727.97,91.535,350.80400000000014,348.865,0.0
51883.0,STARLINK-3576,PAYLOAD,2022-04-21 06:00:00,15.73199101,0.0001286999999999,53.2141,263.4009,59.1515,259.3021,-0.00049401,-0.00069379,0.0,0 STARLINK-3576,1 51883U 22022AH  22111.25001157 -.00069379  00000-0 -49401-3 0  9998,2 51883  53.2141 263.4009 0001287  59.1515 259.3021 15.73199101  8873,6727.898,91.533,350.629,348.897,0.0
51883.0,STARLINK-3576,PAYLOAD,2022-04-21 14:00:01,15.73248824,0.0001402,53.2124,261.7586,55.2878,352.12300000000016,-0.00064738,-0.00090692,0.0,0 STARLINK-3576,1 51883U 22022AH  22111.58334491 -.00090692  00000-0 -64738-3 0  9996,2 51883  53.2124 261.7586 0001402  55.2878 352.1230 15.73248824  3701,6727.755999999999,91.53,350.564,348.67800000000005,0.0
51883.0,STARLINK-3576,PAYLOAD,2022-04-21 22:00:00,15.73198161,0.0001466,53.2122,260.1099,44.3802,92.0186,0.00056293,0.00079125,0.0,0 STARLINK-3576,1 51883U 22022AH  22111.91667824  .00079125  00000-0  56293-3 0  9995,2 51883  53.2122 260.1099 0001466  44.3802  92.0186 15.73198161  3716,6727.9,91.533,350.75199999999984,348.779,0.0
51883.0,STARLINK-3576,PAYLOAD,2022-04-22 06:00:00,15.73197764,0.0001453999999999,53.2128,258.4569,49.1142,176.2617,0.00050706,0.00071141,0.0,0 STARLINK-3576,1 51883U 22022AH  22112.25001157  .00071141  00000-0  50706-3 0  9997,2 51883  53.2128 258.4569 0001454  49.1142 176.2617 15.73197764  9034,6727.901999999999,91.533,350.745,348.788,0.0
51883.0,STARLINK-3576,PAYLOAD,2022-04-22 14:00:01,15.73280289,0.0001558,53.2124,256.8096,48.644,265.6568,-0.00076797,-0.00107406,0.0,0 STARLINK-3576,1 51883U 22022AH  22112.58334491 -.00107406  00000-0 -76797-3 0  9997,2 51883  53.2124 256.8096 0001558  48.6440 265.6568 15.73280289  3719,6727.666,91.529,350.579,348.483,0.0
51883.0,STARLINK-3576,PAYLOAD,2022-04-22 16:00:00,15.73276027,0.0001661,53.2123,256.3978,46.1475,20.4022,-0.00097719,-0.00136017,0.0,0 STARLINK-3576,1 51883U 22022AH  22112.66667824 -.00136017  00000-0 -97719-3 0  9992,2 51883  53.2123 256.3978 0001661  46.1475  20.4022 15.73276027  9092,6727.678000000001,91.529,350.661,348.426,0.0
51883.0,STARLINK-3576,PAYLOAD,2022-04-23 06:00:02,15.73111472,0.0001426999999999,53.2115,253.5091,47.8351,84.4309,0.00052847,0.00073921,0.0,0 STARLINK-3576,1 51883U 22022AH  22113.25002315  .00073921  00000-0  52847-3 0  9991,2 51883  53.2115 253.5091 0001427  47.8351  84.4309 15.73111472  9189,6728.148,91.538,350.973,349.052,0.0
51883.0,STARLINK-3576,PAYLOAD,2022-04-23 14:00:01,15.73173587,0.0001525,53.2118,251.861,40.9202,180.1321,0.00032141,0.00044677,0.0,0 STARLINK-3576,1 51883U 22022AH  22113.58334491  .00044677  00000-0  32141-3 0  9991,2 51883  53.2118 251.8610 0001525  40.9202 180.1321 15.73173587  3691,6727.97,91.535,350.861,348.809,0.0
51883.0,STARLINK-3576,PAYLOAD,2022-04-24 06:00:00,15.73204999,0.0001459,53.2119,248.5602,33.9876,4.9207,0.00053003,0.00074445,0.0,0 STARLINK-3576,1 51883U 22022AH  22114.25001157  .00074445  00000-0  53003-3 0  9992,2 51883  53.2119 248.5602 0001459  33.9876   4.9207 15.73204999  9347,6727.880999999999,91.533,350.728,348.764,0.0
51883.0,STARLINK-3576,PAYLOAD,2022-04-24 14:00:01,15.73238037,0.000171,53.2119,246.912,35.1147,92.7479,-0.00016963,-0.00024398,0.0,0 STARLINK-3576,1 51883U 22022AH  22114.58334491 -.00024398  00000-0 -16963-3 0  9996,2 51883  53.2119 246.9120 0001710  35.1147  92.7479 15.73238037  9390,6727.7869999999975,91.531,350.802,348.501,0.0
51883.0,STARLINK-3576,PAYLOAD,2022-04-25 06:00:00,15.73146398,0.000174,53.2114,243.611,41.2031,264.5573,0.00026024,0.00035976,0.0,0 STARLINK-3576,1 51883U 22022AH  22115.25001157  .00035976  00000-0  26024-3 0  9992,2 51883  53.2114 243.6110 0001740  41.2031 264.5573 15.73146398  9506,6728.0480000000025,91.536,351.084,348.742,0.0
51883.0,STARLINK-3576,PAYLOAD,2022-04-25 14:00:01,15.73160553,0.0001998,53.2117,241.9631,39.958,354.7081,0.00028743,0.00039844,0.0,0 STARLINK-3576,1 51883U 22022AH  22115.58334491  .00039844  00000-0  28743-3 0  9996,2 51883  53.2117 241.9631 0001998  39.9580 354.7081 15.73160553  3718,6728.0080000000025,91.535,351.217,348.528,0.0
51883.0,STARLINK-3576,PAYLOAD,2022-04-25 22:00:00,15.73227875,0.0002056,53.2118,240.3136,35.1378,88.4025,-0.00025506,-0.00036309,0.0,0 STARLINK-3576,1 51883U 22022AH  22115.91667824 -.00036309  00000-0 -25506-3 0  9991,2 51883  53.2118 240.3136 0002056  35.1378  88.4025 15.73227875  3700,6727.816,91.532,351.064,348.297,0.0
51883.0,STARLINK-3576,PAYLOAD,2022-04-26 14:00:01,15.73274343,0.0002057,53.2122,237.0139,30.9047,270.5808,-0.00050446,-0.00071055,0.0,0 STARLINK-3576,1 51883U 22022AH  22116.58335648 -.00071055  00000-0 -50446-3 0  9999,2 51883  53.2122 237.0139 0002057  30.9047 270.5808 15.73274343  9710,6727.683000000001,91.529,350.932,348.164,0.0
51883.0,STARLINK-3576,PAYLOAD,2022-04-26 22:00:00,15.73251319,0.0002101,53.2119,235.3641,26.2221,4.1808,-0.00072591,-0.00101512,0.0,0 STARLINK-3576,1 51883U 22022AH  22116.91667824 -.00101512  00000-0 -72591-3 0  9997,2 51883  53.2119 235.3641 0002101  26.2221   4.1808 15.73251319  3675,6727.749,91.53,351.027,348.2,0.0
51883.0,STARLINK-3576,PAYLOAD,2022-04-27 14:00:01,15.73216317,0.0002079,53.2122,232.0651,24.8221,183.4699,7.5122e-05,9.942e-05,0.0,0 STARLINK-3576,1 51883U 22022AH  22117.58335648  .00009942  00000-0  75122-4 0  9993,2 51883  53.2122 232.0651 0002079  24.8221 183.4699 15.73216317  9878,6727.849,91.532,351.112,348.315,0.0
51883.0,STARLINK-3576,PAYLOAD,2022-04-28 14:00:01,15.73295413,0.0002415,53.2128,227.1155,23.6372,91.4563,-0.00041715,-0.00059005,0.0,0 STARLINK-3576,1 51883U 22022AH  22118.58334491 -.00059005  00000-0 -41715-3 0  9996,2 51883  53.2128 227.1155 0002415  23.6372  91.4563 15.73295413  3759,6727.623000000001,91.528,351.11300000000006,347.86300000000006,0.0
51883.0,STARLINK-3576,PAYLOAD,2022-04-28 20:00:01,15.73275466,0.0002441,53.2126,225.8786,20.1514,71.7131,-0.00035789,-0.00050718,0.0,0 STARLINK-3576,1 51883U 22022AH  22118.83334491 -.00050718  00000-0 -35789-3 0  9990,2 51883  53.2126 225.8786 0002441  20.1514  71.7131 15.73275466 10061,6727.68,91.529,351.18699999999984,347.903,0.0
51883.0,STARLINK-3576,PAYLOAD,2022-04-29 14:00:01,15.73197925,0.0002498,53.2129,222.1667,21.8416,0.1781,-0.00047292,-0.00066476,0.0,0 STARLINK-3576,1 51883U 22022AH  22119.58334491 -.00066476  00000-0 -47292-3 0  9993,2 51883  53.2129 222.1667 0002498  21.8416   0.1781 15.73197925 10186,6727.901,91.533,351.44699999999995,348.085,0.0
51883.0,STARLINK-3576,PAYLOAD,2022-04-29 22:00:00,15.73161483,0.000253,53.2128,220.517,20.4819,90.4423,-7.1549e-05,-0.00010635,0.0,0 STARLINK-3576,1 51883U 22022AH  22119.91667824 -.00010635  00000-0 -71549-4 0  9998,2 51883  53.2128 220.5170 0002530  20.4819  90.4423 15.73161483  3687,6728.005,91.535,351.57199999999995,348.168,0.0
51883.0,STARLINK-3576,PAYLOAD,2022-04-30 06:00:00,15.73176227,0.0002391,53.2133,218.8661,24.4854,175.2941,0.00015586,0.00021288,0.0,0 STARLINK-3576,1 51883U 22022AH  22120.25001157  .00021288  00000-0  15586-3 0  9990,2 51883  53.2133 218.8661 0002391  24.4854 175.2941 15.73176227 10290,6727.9630000000025,91.535,351.43699999999984,348.219,0.0
51883.0,STARLINK-3576,PAYLOAD,2022-04-30 14:00:01,15.73178239,0.0002686,53.2132,217.2187,18.5678,270.1276,8.8255e-05,0.00011772,0.0,0 STARLINK-3576,1 51883U 22022AH  22120.58334491  .00011772  00000-0  88255-4 0  9997,2 51883  53.2132 217.2187 0002686  18.5678 270.1276 15.73178239  3686,6727.956999999999,91.534,351.629,348.015,0.0
